{
  "type": "FeatureCollection",
  "features": [
    {
      "type": "Feature",
      "properties": {
        "norad_id": 35052,
        "name": "IRIDIUM 33 DEB",
        "group": "iridium-33-debris",
        "lat": 31.876435949677784,
        "lon": 22.351594217109493,
        "alt_km": 755.4016294692465,
        "timestamp": "2025-12-13T16:48:33.094851+00:00",
        "meta_object_name": "IRIDIUM 33 DEB",
        "meta_object_id": "1997-051NY",
        "meta_epoch": "2025-12-12T08:56:28.870368",
        "meta_mean_motion": 14.38491759,
        "meta_eccentricity": 0.00136796,
        "meta_inclination": 86.3311,
        "meta_ra_of_asc_node": 20.6338,
        "meta_arg_of_pericenter": 86.1311,
        "meta_mean_anomaly": 274.145,
        "meta_ephemeris_type": 0,
        "meta_classification_type": "U",
        "meta_norad_cat_id": 35052,
        "meta_element_set_no": 999,
        "meta_rev_at_epoch": 87270,
        "meta_bstar": 0.0002781126,
        "meta_mean_motion_dot": 8.7e-06,
        "meta_mean_motion_ddot": 0,
        "tle_line1": "1 35052U 97051NY  25346.37255637  .00000870  00000+0  27811-3 0  9991",
        "tle_line2": "2 35052  86.3311  20.6338 0013679  86.1311 274.1450 14.38491759872705"
      },
      "geometry": {
        "type": "Point",
        "coordinates": [
          22.351594217109493,
          31.876435949677784
        ]
      }
    },
    {
      "type": "Feature",
      "properties": {
        "norad_id": 35080,
        "name": "IRIDIUM 33 DEB",
        "group": "iridium-33-debris",
        "lat": 11.20130106402573,
        "lon": 52.66920812070338,
        "alt_km": 652.051681462156,
        "timestamp": "2025-12-13T16:48:33.094861+00:00",
        "meta_object_name": "IRIDIUM 33 DEB",
        "meta_object_id": "1997-051PF",
        "meta_epoch": "2025-12-12T03:35:19.907808",
        "meta_mean_motion": 14.85960238,
        "meta_eccentricity": 0.00604695,
        "meta_inclination": 86.207,
        "meta_ra_of_asc_node": 52.6577,
        "meta_arg_of_pericenter": 181.932,
        "meta_mean_anomaly": 178.1681,
        "meta_ephemeris_type": 0,
        "meta_classification_type": "U",
        "meta_norad_cat_id": 35080,
        "meta_element_set_no": 999,
        "meta_rev_at_epoch": 69679,
        "meta_bstar": 0.0091733841,
        "meta_mean_motion_dot": 0.00083628,
        "meta_mean_motion_ddot": 0,
        "tle_line1": "1 35080U 97051PF  25346.14953597  .00083628  00000+0  91734-2 0  9993",
        "tle_line2": "2 35080  86.2070  52.6577 0060469 181.9320 178.1681 14.85960238696797"
      },
      "geometry": {
        "type": "Point",
        "coordinates": [
          52.66920812070338,
          11.20130106402573
        ]
      }
    },
    {
      "type": "Feature",
      "properties": {
        "norad_id": 35297,
        "name": "IRIDIUM 33 DEB",
        "group": "iridium-33-debris",
        "lat": -37.9113209805643,
        "lon": 59.526423927644714,
        "alt_km": 760.5641832269266,
        "timestamp": "2025-12-13T16:48:33.094871+00:00",
        "meta_object_name": "IRIDIUM 33 DEB",
        "meta_object_id": "1997-051PM",
        "meta_epoch": "2025-12-12T22:42:20.538720",
        "meta_mean_motion": 14.45159336,
        "meta_eccentricity": 0.00177378,
        "meta_inclination": 86.3854,
        "meta_ra_of_asc_node": 62.6701,
        "meta_arg_of_pericenter": 139.4968,
        "meta_mean_anomaly": 220.7558,
        "meta_ephemeris_type": 0,
        "meta_classification_type": "U",
        "meta_norad_cat_id": 35297,
        "meta_element_set_no": 999,
        "meta_rev_at_epoch": 70429,
        "meta_bstar": 0.0010165954,
        "meta_mean_motion_dot": 3.583e-05,
        "meta_mean_motion_ddot": 0,
        "tle_line1": "1 35297U 97051PM  25346.94607105  .00003583  00000+0  10166-2 0  9994",
        "tle_line2": "2 35297  86.3854  62.6701 0017737 139.4968 220.7558 14.45159336704291"
      },
      "geometry": {
        "type": "Point",
        "coordinates": [
          59.526423927644714,
          -37.9113209805643
        ]
      }
    },
    {
      "type": "Feature",
      "properties": {
        "norad_id": 35299,
        "name": "IRIDIUM 33 DEB",
        "group": "iridium-33-debris",
        "lat": -60.39206544756302,
        "lon": -140.67309101327953,
        "alt_km": 795.6200640622019,
        "timestamp": "2025-12-13T16:48:33.094881+00:00",
        "meta_object_name": "IRIDIUM 33 DEB",
        "meta_object_id": "1997-051PP",
        "meta_epoch": "2025-12-12T09:58:22.179072",
        "meta_mean_motion": 14.40859086,
        "meta_eccentricity": 0.00589602,
        "meta_inclination": 86.2886,
        "meta_ra_of_asc_node": 33.3272,
        "meta_arg_of_pericenter": 103.4207,
        "meta_mean_anomaly": 316.2775,
        "meta_ephemeris_type": 0,
        "meta_classification_type": "U",
        "meta_norad_cat_id": 35299,
        "meta_element_set_no": 999,
        "meta_rev_at_epoch": 86326,
        "meta_bstar": 0.0012314468,
        "meta_mean_motion_dot": 4.048e-05,
        "meta_mean_motion_ddot": 0,
        "tle_line1": "1 35299U 97051PP  25346.41553448  .00004048  00000+0  12314-2 0  9992",
        "tle_line2": "2 35299  86.2886  33.3272 0058960 103.4207 316.2775 14.40859086863264"
      },
      "geometry": {
        "type": "Point",
        "coordinates": [
          -140.67309101327953,
          -60.39206544756302
        ]
      }
    },
    {
      "type": "Feature",
      "properties": {
        "norad_id": 35480,
        "name": "IRIDIUM 33 DEB",
        "group": "iridium-33-debris",
        "lat": 10.686830857408742,
        "lon": 25.185334088268203,
        "alt_km": 727.8643097906852,
        "timestamp": "2025-12-13T16:48:33.094891+00:00",
        "meta_object_name": "IRIDIUM 33 DEB",
        "meta_object_id": "1997-051QA",
        "meta_epoch": "2025-12-09T19:59:43.135296",
        "meta_mean_motion": 14.49744632,
        "meta_eccentricity": 0.00159269,
        "meta_inclination": 86.357,
        "meta_ra_of_asc_node": 26.1722,
        "meta_arg_of_pericenter": 113.2937,
        "meta_mean_anomaly": 246.9945,
        "meta_ephemeris_type": 0,
        "meta_classification_type": "U",
        "meta_norad_cat_id": 35480,
        "meta_element_set_no": 999,
        "meta_rev_at_epoch": 86989,
        "meta_bstar": 0.0009193458,
        "meta_mean_motion_dot": 3.565e-05,
        "meta_mean_motion_ddot": 0,
        "tle_line1": "1 35480U 97051QA  25343.83313814  .00003565  00000+0  91935-3 0  9998",
        "tle_line2": "2 35480  86.3570  26.1722 0015926 113.2937 246.9945 14.49744632869893"
      },
      "geometry": {
        "type": "Point",
        "coordinates": [
          25.185334088268203,
          10.686830857408742
        ]
      }
    },
    {
      "type": "Feature",
      "properties": {
        "norad_id": 35484,
        "name": "IRIDIUM 33 DEB",
        "group": "iridium-33-debris",
        "lat": -15.3893670069599,
        "lon": -8.707561155185607,
        "alt_km": 587.597940732092,
        "timestamp": "2025-12-13T16:48:33.094901+00:00",
        "meta_object_name": "IRIDIUM 33 DEB",
        "meta_object_id": "1997-051QE",
        "meta_epoch": "2025-12-12T07:13:32.804832",
        "meta_mean_motion": 14.98607005,
        "meta_eccentricity": 0.0023596,
        "meta_inclination": 86.3611,
        "meta_ra_of_asc_node": 352.9505,
        "meta_arg_of_pericenter": 126.5148,
        "meta_mean_anomaly": 233.8262,
        "meta_ephemeris_type": 0,
        "meta_classification_type": "U",
        "meta_norad_cat_id": 35484,
        "meta_element_set_no": 999,
        "meta_rev_at_epoch": 62009,
        "meta_bstar": 0.0041273462,
        "meta_mean_motion_dot": 0.00050078,
        "meta_mean_motion_ddot": 0,
        "tle_line1": "1 35484U 97051QE  25346.30107413  .00050078  00000+0  41273-2 0  9993",
        "tle_line2": "2 35484  86.3611 352.9505 0023596 126.5148 233.8262 14.98607005620095"
      },
      "geometry": {
        "type": "Point",
        "coordinates": [
          -8.707561155185607,
          -15.3893670069599
        ]
      }
    },
    {
      "type": "Feature",
      "properties": {
        "norad_id": 35488,
        "name": "IRIDIUM 33 DEB",
        "group": "iridium-33-debris",
        "lat": 40.13268117053042,
        "lon": -56.45788275963602,
        "alt_km": 595.671153936637,
        "timestamp": "2025-12-13T16:48:33.094911+00:00",
        "meta_object_name": "IRIDIUM 33 DEB",
        "meta_object_id": "1997-051QJ",
        "meta_epoch": "2025-12-12T14:43:12.684864",
        "meta_mean_motion": 14.83053941,
        "meta_eccentricity": 0.00298615,
        "meta_inclination": 86.3248,
        "meta_ra_of_asc_node": 300.9369,
        "meta_arg_of_pericenter": 43.3071,
        "meta_mean_anomaly": 317.049,
        "meta_ephemeris_type": 0,
        "meta_classification_type": "U",
        "meta_norad_cat_id": 35488,
        "meta_element_set_no": 999,
        "meta_rev_at_epoch": 88264,
        "meta_bstar": 0.0023232859,
        "meta_mean_motion_dot": 0.00019104,
        "meta_mean_motion_ddot": 0,
        "tle_line1": "1 35488U 97051QJ  25346.61334126  .00019104  00000+0  23233-2 0  9995",
        "tle_line2": "2 35488  86.3248 300.9369 0029861  43.3071 317.0490 14.83053941882645"
      },
      "geometry": {
        "type": "Point",
        "coordinates": [
          -56.45788275963602,
          40.13268117053042
        ]
      }
    }
  ]
}